[{"OBJECT_NAME":"SCS-01 J","OBJECT_ID":"2025-100J","EPOCH":"2026-03-09T22:31:25.904064","MEAN_MOTION":15.31338011,"ECCENTRICITY":0.00063909,"INCLINATION":97.3693,"RA_OF_ASC_NODE":145.4824,"ARG_OF_PERICENTER":272.025,"MEAN_ANOMALY":88.026,"EPHEMERIS_TYPE":0,"CLASSIFICATION_TYPE":"U","NORAD_CAT_ID":63990,"ELEMENT_SET_NO":999,"REV_AT_EPOCH":4563,"BSTAR":0.0011832888,"MEAN_MOTION_DOT":0.00035886,"MEAN_MOTION_DDOT":0},{"OBJECT_NAME":"STARLINK-35127","OBJECT_ID":"2025-210T","EPOCH":"2026-03-09T21:19:15.346848","MEAN_MOTION":15.30210805,"ECCENTRICITY":0.00010617,"INCLINATION":53.1573,"RA_OF_ASC_NODE":306.0042,"ARG_OF_PERICENTER":114.3002,"MEAN_ANOMALY":245.811,"EPHEMERIS_TYPE":0,"CLASSIFICATION_TYPE":"U","NORAD_CAT_ID":65639,"ELEMENT_SET_NO":999,"REV_AT_EPOCH":2776,"BSTAR":0.0008981067,"MEAN_MOTION_DOT":0.00026343,"MEAN_MOTION_DDOT":0}]
